{"type": "FeatureCollection", "features": [ {"type": "Feature", "properties": {"norad_id": 33618, "name": "FENGYUN 1C DEB", "group": "fengyun-1c-debris", "lat": 20.259218046576198, "lon": 72.14322336214788, "alt_km": 735.954562358871, "timestamp": "2025-12-13T22:39:29.996940+00:00", "meta": {"OBJECT_NAME": "FENGYUN 1C DEB", "OBJECT_ID": "1999-025DDB", "EPOCH": "2025-12-12T23:34:09.017184", "MEAN_MOTION": 14.62132053, "ECCENTRICITY": 0.01651663, "INCLINATION": 98.53, "RA_OF_ASC_NODE": 74.3256, "ARG_OF_PERICENTER": 139.6441, "MEAN_ANOMALY": 221.7153, "EPHEMERIS_TYPE": 0, "CLASSIFICATION_TYPE": "U", "NORAD_CAT_ID": 33618, "ELEMENT_SET_NO": 999, "REV_AT_EPOCH": 96787, "BSTAR": 0.0013495133, "MEAN_MOTION_DOT": 8.203e-05, "MEAN_MOTION_DDOT": 0}, "tle": {"line1": "1 33618U 99025DDB 25346.98204881  .00008203  00000+0  13495-2 0  9992", "line2": "2 33618  98.5300  74.3256 0165166 139.6441 221.7153 14.62132053967873"}}, "geometry": {"type": "Point", "coordinates": [72.14322336214788, 20.259218046576198]}}, {"type": "Feature", "properties": {"norad_id": 33619, "name": "FENGYUN 1C DEB", "group": "fengyun-1c-debris", "lat": 65.92751346295559, "lon": 36.89989725583064, "alt_km": 793.777693037654, "timestamp": "2025-12-13T22:39:29.996950+00:00", "meta": {"OBJECT_NAME": "FENGYUN 1C DEB", "OBJECT_ID": "1999-025DDC", "EPOCH": "2025-12-10T11:20:06.017568", "MEAN_MOTION": 14.17489179, "ECCENTRICITY": 0.00510783, "INCLINATION": 98.8615, "RA_OF_ASC_NODE": 53.8773, "ARG_OF_PERICENTER": 52.8594, "MEAN_ANOMALY": 307.723, "EPHEMERIS_TYPE": 0, "CLASSIFICATION_TYPE": "U", "NORAD_CAT_ID": 33619, "ELEMENT_SET_NO": 999, "REV_AT_EPOCH": 63592, "BSTAR": 0.0019317895, "MEAN_MOTION_DOT": 3.926e-05, "MEAN_MOTION_DDOT": 0}, "tle": {"line1": "1 33619U 99025DDC 25344.47229187  .00003926  00000+0  19318-2 0  9998", "line2": "2 33619  98.8615  53.8773 0051078  52.8594 307.7230 14.17489179635926"}}, "geometry": {"type": "Point", "coordinates": [36.89989725583064, 65.92751346295559]}}, {"type": "Feature", "properties": {"norad_id": 33621, "name": "FENGYUN 1C DEB", "group": "fengyun-1c-debris", "lat": -13.739339319783477, "lon": -159.3920657451241, "alt_km": 710.902488325858, "timestamp": "2025-12-13T22:39:29.996960+00:00", "meta": {"OBJECT_NAME": "FENGYUN 1C DEB", "OBJECT_ID": "1999-025DDE", "EPOCH": "2025-12-10T20:17:14.702784", "MEAN_MOTION": 14.19482835, "ECCENTRICITY": 0.02846988, "INCLINATION": 98.1391, "RA_OF_ASC_NODE": 195.7496, "ARG_OF_PERICENTER": 300.0128, "MEAN_ANOMALY": 57.3079, "EPHEMERIS_TYPE": 0, "CLASSIFICATION_TYPE": "U", "NORAD_CAT_ID": 33621, "ELEMENT_SET_NO": 999, "REV_AT_EPOCH": 64217, "BSTAR": 0.00099524636, "MEAN_MOTION_DOT": 3.099e-05, "MEAN_MOTION_DDOT": 0}, "tle": {"line1": "1 33621U 99025DDE 25344.84530906  .00003099  00000+0  99525-3 0  9996", "line2": "2 33621  98.1391 195.7496 0284698 300.0128  57.3079 14.19482835642176"}}, "geometry": {"type": "Point", "coordinates": [-159.3920657451241, -13.739339319783477]}}, {"type": "Feature", "properties": {"norad_id": 33625, "name": "FENGYUN 1C DEB", "group": "fengyun-1c-debris", "lat": 38.18844728559721, "lon": 91.79210172600871, "alt_km": 691.2764773284862, "timestamp": "2025-12-13T22:39:29.996970+00:00", "meta": {"OBJECT_NAME": "FENGYUN 1C DEB", "OBJECT_ID": "1999-025DDJ", "EPOCH": "2025-12-01T01:24:31.444992", "MEAN_MOTION": 14.60592393, "ECCENTRICITY": 0.02269611, "INCLINATION": 98.6203, "RA_OF_ASC_NODE": 85.2252, "ARG_OF_PERICENTER": 171.2387, "MEAN_ANOMALY": 189.288, "EPHEMERIS_TYPE": 0, "CLASSIFICATION_TYPE": "U", "NORAD_CAT_ID": 33625, "ELEMENT_SET_NO": 999, "REV_AT_EPOCH": 61220, "BSTAR": 0.0017865562, "MEAN_MOTION_DOT": 0.00012473, "MEAN_MOTION_DDOT": 0}, "tle": {"line1": "1 33625U 99025DDJ 25335.05869728  .00012473  00000+0  17866-2 0  9993", "line2": "2 33625  98.6203  85.2252 0226961 171.2387 189.2880 14.60592393612207"}}, "geometry": {"type": "Point", "coordinates": [91.79210172600871, 38.18844728559721]}}, {"type": "Feature", "properties": {"norad_id": 33630, "name": "FENGYUN 1C DEB", "group": "fengyun-1c-debris", "lat": 9.241899386533598, "lon": 92.68832888770994, "alt_km": 778.0102864660912, "timestamp": "2025-12-13T22:39:29.996980+00:00", "meta": {"OBJECT_NAME": "FENGYUN 1C DEB", "OBJECT_ID": "1999-025DDP", "EPOCH": "2025-12-09T13:35:56.277312", "MEAN_MOTION": 14.17713216, "ECCENTRICITY": 0.0135528, "INCLINATION": 98.6166, "RA_OF_ASC_NODE": 89.8546, "ARG_OF_PERICENTER": 77.2482, "MEAN_ANOMALY": 284.3802, "EPHEMERIS_TYPE": 0, "CLASSIFICATION_TYPE": "U", "NORAD_CAT_ID": 33630, "ELEMENT_SET_NO": 999, "REV_AT_EPOCH": 64366, "BSTAR": 0.00061826, "MEAN_MOTION_DOT": 1.337e-05, "MEAN_MOTION_DDOT": 0}, "tle": {"line1": "1 33630U 99025DDP 25343.56662358  .00001337  00000+0  61826-3 0  9997", "line2": "2 33630  98.6166  89.8546 0135528  77.2482 284.3802 14.17713216643662"}}, "geometry": {"type": "Point", "coordinates": [92.68832888770994, 9.241899386533598]}}, {"type": "Feature", "properties": {"norad_id": 33633, "name": "FENGYUN 1C DEB", "group": "fengyun-1c-debris", "lat": 56.95441111903374, "lon": 68.05001881463834, "alt_km": 821.2991574735261, "timestamp": "2025-12-13T22:39:29.996990+00:00", "meta": {"OBJECT_NAME": "FENGYUN 1C DEB", "OBJECT_ID": "1999-025DDS", "EPOCH": "2025-12-12T05:54:30.955104", "MEAN_MOTION": 14.19329776, "ECCENTRICITY": 0.00830759, "INCLINATION": 99.0576, "RA_OF_ASC_NODE": 80.5087, "ARG_OF_PERICENTER": 152.7608, "MEAN_ANOMALY": 235.4895, "EPHEMERIS_TYPE": 0, "CLASSIFICATION_TYPE": "U", "NORAD_CAT_ID": 33633, "ELEMENT_SET_NO": 999, "REV_AT_EPOCH": 90704, "BSTAR": 0.0036236562, "MEAN_MOTION_DOT": 7.838e-05, "MEAN_MOTION_DDOT": 0}, "tle": {"line1": "1 33633U 99025DDS 25346.24619161  .00007838  00000+0  36237-2 0  9991", "line2": "2 33633  99.0576  80.5087 0083075 152.7608 235.4895 14.19329776907041"}}, "geometry": {"type": "Point", "coordinates": [68.05001881463834, 56.95441111903374]}}, {"type": "Feature", "properties": {"norad_id": 33637, "name": "FENGYUN 1C DEB", "group": "fengyun-1c-debris", "lat": 14.488950549366823, "lon": 30.694824032508834, "alt_km": 810.3751219449505, "timestamp": "2025-12-13T22:39:29.996999+00:00", "meta": {"OBJECT_NAME": "FENGYUN 1C DEB", "OBJECT_ID": "1999-025DDW", "EPOCH": "2025-12-11T08:44:50.038656", "MEAN_MOTION": 14.36733805, "ECCENTRICITY": 0.00831045, "INCLINATION": 98.493, "RA_OF_ASC_NODE": 30.363, "ARG_OF_PERICENTER": 155.527, "MEAN_ANOMALY": 204.9897, "EPHEMERIS_TYPE": 0, "CLASSIFICATION_TYPE": "U", "NORAD_CAT_ID": 33637, "ELEMENT_SET_NO": 999, "REV_AT_EPOCH": 64818, "BSTAR": 0.0022658521, "MEAN_MOTION_DOT": 6.913e-05, "MEAN_MOTION_DDOT": 0}, "tle": {"line1": "1 33637U 99025DDW 25345.36446804  .00006913  00000+0  22659-2 0  9995", "line2": "2 33637  98.4930  30.3630 0083104 155.5270 204.9897 14.36733805648189"}}, "geometry": {"type": "Point", "coordinates": [30.694824032508834, 14.488950549366823]}}, {"type": "Feature", "properties": {"norad_id": 33638, "name": "FENGYUN 1C DEB", "group": "fengyun-1c-debris", "lat": -32.33650005597012, "lon": 53.082174483601186, "alt_km": 898.6285672481536, "timestamp": "2025-12-13T22:39:29.997009+00:00", "meta": {"OBJECT_NAME": "FENGYUN 1C DEB", "OBJECT_ID": "1999-025DDX", "EPOCH": "2025-12-11T22:14:50.921664", "MEAN_MOTION": 13.69308763, "ECCENTRICITY": 0.0264805, "INCLINATION": 98.4644, "RA_OF_ASC_NODE": 236.7162, "ARG_OF_PERICENTER": 275.2453, "MEAN_ANOMALY": 81.8534, "EPHEMERIS_TYPE": 0, "CLASSIFICATION_TYPE": "U", "NORAD_CAT_ID": 33638, "ELEMENT_SET_NO": 999, "REV_AT_EPOCH": 60904, "BSTAR": 0.0019789, "MEAN_MOTION_DOT": 2.159e-05, "MEAN_MOTION_DDOT": 0}, "tle": {"line1": "1 33638U 99025DDX 25345.92697826  .00002159  00000+0  19789-2 0  9998", "line2": "2 33638  98.4644 236.7162 0264805 275.2453  81.8534 13.69308763609044"}}, "geometry": {"type": "Point", "coordinates": [53.082174483601186, -32.33650005597012]}}, {"type": "Feature", "properties": {"norad_id": 33639, "name": "FENGYUN 1C DEB", "group": "fengyun-1c-debris", "lat": 72.38669371396495, "lon": -72.16953106413544, "alt_km": 784.8719307464935, "timestamp": "2025-12-13T22:39:29.997019+00:00", "meta": {"OBJECT_NAME": "FENGYUN 1C DEB", "OBJECT_ID": "1999-025DDY", "EPOCH": "2025-12-03T23:45:48.189312", "MEAN_MOTION": 14.40248408, "ECCENTRICITY": 0.00493059, "INCLINATION": 98.7136, "RA_OF_ASC_NODE": 68.813, "ARG_OF_PERICENTER": 315.1865, "MEAN_ANOMALY": 44.5345, "EPHEMERIS_TYPE": 0, "CLASSIFICATION_TYPE": "U", "NORAD_CAT_ID": 33639, "ELEMENT_SET_NO": 999, "REV_AT_EPOCH": 60456, "BSTAR": 0.0043899516, "MEAN_MOTION_DOT": 0.00014079, "MEAN_MOTION_DDOT": 0}, "tle": {"line1": "1 33639U 99025DDY 25337.99014108  .00014079  00000+0  43900-2 0  9999", "line2": "2 33639  98.7136  68.8130 0049305 315.1865  44.5345 14.40248408604567"}}, "geometry": {"type": "Point", "coordinates": [-72.16953106413544, 72.38669371396495]}}, {"type": "Feature", "properties": {"norad_id": 33640, "name": "FENGYUN 1C DEB", "group": "fengyun-1c-debris", "lat": -43.3914813358481, "lon": -60.79141032461947, "alt_km": 806.2857156155806, "timestamp": "2025-12-13T22:39:29.997029+00:00", "meta": {"OBJECT_NAME": "FENGYUN 1C DEB", "OBJECT_ID": "1999-025DDZ", "EPOCH": "2025-12-11T19:22:45.041664", "MEAN_MOTION": 14.45889666, "ECCENTRICITY": 0.00906976, "INCLINATION": 98.8406, "RA_OF_ASC_NODE": 288.5217, "ARG_OF_PERICENTER": 162.4466, "MEAN_ANOMALY": 197.9894, "EPHEMERIS_TYPE": 0, "CLASSIFICATION_TYPE": "U", "NORAD_CAT_ID": 33640, "ELEMENT_SET_NO": 999, "REV_AT_EPOCH": 92329, "BSTAR": 0.00074722735, "MEAN_MOTION_DOT": 2.744e-05, "MEAN_MOTION_DDOT": 0}, "tle": {"line1": "1 33640U 99025DDZ 25345.80746576  .00002744  00000+0  74723-3 0  9995", "line2": "2 33640  98.8406 288.5217 0090697 162.4466 197.9894 14.45889666923295"}}, "geometry": {"type": "Point", "coordinates": [-60.79141032461947, -43.3914813358481]}}]}